{"type": "FeatureCollection", "features": [ {"type": "Feature", "properties": {"norad_id": 43648, "name": "BEIDOU-3 M15 (C34)", "group": "gnss", "lat": 54.06411527295886, "lon": 42.970156102711705, "alt_km": 21518.541894277052, "timestamp": "2025-12-24T05:51:19.852426+00:00", "meta": {"OBJECT_NAME": "BEIDOU-3 M15 (C34)", "OBJECT_ID": "2018-078B", "EPOCH": "2025-12-23T00:43:09.285312", "MEAN_MOTION": 1.86232355, "ECCENTRICITY": 0.00040598, "INCLINATION": 54.2483, "RA_OF_ASC_NODE": 306.1625, "ARG_OF_PERICENTER": 19.7636, "MEAN_ANOMALY": 340.2561, "EPHEMERIS_TYPE": 0, "CLASSIFICATION_TYPE": "U", "NORAD_CAT_ID": 43648, "ELEMENT_SET_NO": 999, "REV_AT_EPOCH": 4889, "BSTAR": 0, "MEAN_MOTION_DOT": -5.4e-07, "MEAN_MOTION_DDOT": 0}, "tle": {"line1": "1 43648U 18078B   25357.02996858 -.00000054  00000+0  00000+0 0  9996", "line2": "2 43648  54.2483 306.1625 0004059  19.7636 340.2561  1.86232355 48891"}}, "geometry": {"type": "Point", "coordinates": [42.970156102711705, 54.06411527295886]}}, {"type": "Feature", "properties": {"norad_id": 43683, "name": "BEIDOU-3 G1 (C59)", "group": "gnss", "lat": -1.6477505993079706, "lon": -39.20867392963803, "alt_km": 35793.81067577396, "timestamp": "2025-12-24T05:51:19.852438+00:00", "meta": {"OBJECT_NAME": "BEIDOU-3 G1 (C59)", "OBJECT_ID": "2018-085A", "EPOCH": "2025-12-23T22:21:28.924992", "MEAN_MOTION": 1.00267075, "ECCENTRICITY": 0.00014694, "INCLINATION": 2.6341, "RA_OF_ASC_NODE": 102.6378, "ARG_OF_PERICENTER": 44.3422, "MEAN_ANOMALY": 61.0766, "EPHEMERIS_TYPE": 0, "CLASSIFICATION_TYPE": "U", "NORAD_CAT_ID": 43683, "ELEMENT_SET_NO": 999, "REV_AT_EPOCH": 2630, "BSTAR": 0, "MEAN_MOTION_DOT": -2.59e-06, "MEAN_MOTION_DDOT": 0}, "tle": {"line1": "1 43683U 18085A   25357.93158478 -.00000259  00000+0  00000+0 0  9998", "line2": "2 43683   2.6341 102.6378 0001469  44.3422  61.0766  1.00267075 26303"}}, "geometry": {"type": "Point", "coordinates": [-39.20867392963803, -1.6477505993079706]}}, {"type": "Feature", "properties": {"norad_id": 43687, "name": "COSMOS 2529 (757)", "group": "gnss", "lat": 59.93568121474207, "lon": -105.12304312043474, "alt_km": 19140.900370789885, "timestamp": "2025-12-24T05:51:19.852449+00:00", "meta": {"OBJECT_NAME": "COSMOS 2529 (757)", "OBJECT_ID": "2018-086A", "EPOCH": "2025-12-23T05:01:04.327104", "MEAN_MOTION": 2.13102131, "ECCENTRICITY": 0.0006897, "INCLINATION": 64.2927, "RA_OF_ASC_NODE": 198.5346, "ARG_OF_PERICENTER": 253.659, "MEAN_ANOMALY": 106.3281, "EPHEMERIS_TYPE": 0, "CLASSIFICATION_TYPE": "U", "NORAD_CAT_ID": 43687, "ELEMENT_SET_NO": 999, "REV_AT_EPOCH": 5553, "BSTAR": 0, "MEAN_MOTION_DOT": 9.5e-07, "MEAN_MOTION_DDOT": 0}, "tle": {"line1": "1 43687U 18086A   25357.20907786  .00000095  00000+0  00000+0 0  9994", "line2": "2 43687  64.2927 198.5346 0006897 253.6590 106.3281  2.13102131 55539"}}, "geometry": {"type": "Point", "coordinates": [-105.12304312043474, 59.93568121474207]}}, {"type": "Feature", "properties": {"norad_id": 43706, "name": "BEIDOU-3 M17 (C36)", "group": "gnss", "lat": -10.06062562821862, "lon": -179.13312331292508, "alt_km": 21516.958842563225, "timestamp": "2025-12-24T05:51:19.852464+00:00", "meta": {"OBJECT_NAME": "BEIDOU-3 M17 (C36)", "OBJECT_ID": "2018-093A", "EPOCH": "2025-12-22T11:03:17.644896", "MEAN_MOTION": 1.86228432, "ECCENTRICITY": 0.00060427, "INCLINATION": 54.173, "RA_OF_ASC_NODE": 188.2918, "ARG_OF_PERICENTER": 307.405, "MEAN_ANOMALY": 284.4943, "EPHEMERIS_TYPE": 0, "CLASSIFICATION_TYPE": "U", "NORAD_CAT_ID": 43706, "ELEMENT_SET_NO": 999, "REV_AT_EPOCH": 4824, "BSTAR": 0, "MEAN_MOTION_DOT": 9.4e-07, "MEAN_MOTION_DDOT": 0}, "tle": {"line1": "1 43706U 18093A   25356.46062089  .00000094  00000+0  00000+0 0  9998", "line2": "2 43706  54.1730 188.2918 0006042 307.4050 284.4943  1.86228432 48248"}}, "geometry": {"type": "Point", "coordinates": [-179.13312331292508, -10.06062562821862]}}, {"type": "Feature", "properties": {"norad_id": 43707, "name": "BEIDOU-3 M18 (C37)", "group": "gnss", "lat": 53.04983831233491, "lon": -97.85742461805945, "alt_km": 21521.132600713718, "timestamp": "2025-12-24T05:51:19.852475+00:00", "meta": {"OBJECT_NAME": "BEIDOU-3 M18 (C37)", "OBJECT_ID": "2018-093B", "EPOCH": "2025-12-23T01:12:21.238848", "MEAN_MOTION": 1.86226616, "ECCENTRICITY": 0.0006147, "INCLINATION": 54.1741, "RA_OF_ASC_NODE": 188.2636, "ARG_OF_PERICENTER": 354.1254, "MEAN_ANOMALY": 5.9078, "EPHEMERIS_TYPE": 0, "CLASSIFICATION_TYPE": "U", "NORAD_CAT_ID": 43707, "ELEMENT_SET_NO": 999, "REV_AT_EPOCH": 4825, "BSTAR": 0, "MEAN_MOTION_DOT": 9.6e-07, "MEAN_MOTION_DDOT": 0}, "tle": {"line1": "1 43707U 18093B   25357.05024582  .00000096  00000+0  00000+0 0  9993", "line2": "2 43707  54.1741 188.2636 0006147 354.1254   5.9078  1.86226616 48257"}}, "geometry": {"type": "Point", "coordinates": [-97.85742461805945, 53.04983831233491]}}, {"type": "Feature", "properties": {"norad_id": 43873, "name": "GPS BIII-1  (PRN 04)", "group": "gnss", "lat": 8.638374910709212, "lon": -86.87522784484753, "alt_km": 20092.265652482813, "timestamp": "2025-12-24T05:51:19.852487+00:00", "meta": {"OBJECT_NAME": "GPS BIII-1  (PRN 04)", "OBJECT_ID": "2018-109A", "EPOCH": "2025-12-23T17:59:08.698272", "MEAN_MOTION": 2.00553954, "ECCENTRICITY": 0.00376155, "INCLINATION": 55.5727, "RA_OF_ASC_NODE": 99.1128, "ARG_OF_PERICENTER": 195.5361, "MEAN_ANOMALY": 337.0288, "EPHEMERIS_TYPE": 0, "CLASSIFICATION_TYPE": "U", "NORAD_CAT_ID": 43873, "ELEMENT_SET_NO": 999, "REV_AT_EPOCH": 5155, "BSTAR": 0, "MEAN_MOTION_DOT": 1.4e-07, "MEAN_MOTION_DDOT": 0}, "tle": {"line1": "1 43873U 18109A   25357.74940623  .00000014  00000+0  00000+0 0  9994", "line2": "2 43873  55.5727  99.1128 0037615 195.5361 337.0288  2.00553954 51550"}}, "geometry": {"type": "Point", "coordinates": [-86.87522784484753, 8.638374910709212]}}, {"type": "Feature", "properties": {"norad_id": 44231, "name": "BEIDOU-2 G8 (C01)", "group": "gnss", "lat": -1.6102485760402767, "lon": -34.66880487843338, "alt_km": 35750.85566270238, "timestamp": "2025-12-24T05:51:19.852501+00:00", "meta": {"OBJECT_NAME": "BEIDOU-2 G8 (C01)", "OBJECT_ID": "2019-027A", "EPOCH": "2025-12-23T22:22:43.805280", "MEAN_MOTION": 1.00275022, "ECCENTRICITY": 0.00083016, "INCLINATION": 1.6885, "RA_OF_ASC_NODE": 74.7336, "ARG_OF_PERICENTER": 259.1295, "MEAN_ANOMALY": 239.0333, "EPHEMERIS_TYPE": 0, "CLASSIFICATION_TYPE": "U", "NORAD_CAT_ID": 44231, "ELEMENT_SET_NO": 999, "REV_AT_EPOCH": 2432, "BSTAR": 0, "MEAN_MOTION_DOT": -2.26e-06, "MEAN_MOTION_DDOT": 0}, "tle": {"line1": "1 44231U 19027A   25357.93245145 -.00000226  00000+0  00000+0 0  9997", "line2": "2 44231   1.6885  74.7336 0008301 259.1295 239.0333  1.00275022 24322"}}, "geometry": {"type": "Point", "coordinates": [-34.66880487843338, -1.6102485760402767]}}, {"type": "Feature", "properties": {"norad_id": 44299, "name": "COSMOS 2534 (758)", "group": "gnss", "lat": -25.2621618855842, "lon": 31.61251337535227, "alt_km": 19127.95244942308, "timestamp": "2025-12-24T05:51:19.852512+00:00", "meta": {"OBJECT_NAME": "COSMOS 2534 (758)", "OBJECT_ID": "2019-030A", "EPOCH": "2025-12-23T06:38:38.752224", "MEAN_MOTION": 2.13102317, "ECCENTRICITY": 0.00086492, "INCLINATION": 64.3662, "RA_OF_ASC_NODE": 198.5378, "ARG_OF_PERICENTER": 283.8843, "MEAN_ANOMALY": 262.5113, "EPHEMERIS_TYPE": 0, "CLASSIFICATION_TYPE": "U", "NORAD_CAT_ID": 44299, "ELEMENT_SET_NO": 999, "REV_AT_EPOCH": 5117, "BSTAR": 0, "MEAN_MOTION_DOT": 9.5e-07, "MEAN_MOTION_DDOT": 0}, "tle": {"line1": "1 44299U 19030A   25357.27683741  .00000095  00000+0  00000+0 0  9993", "line2": "2 44299  64.3662 198.5378 0008649 283.8843 262.5113  2.13102317 51175"}}, "geometry": {"type": "Point", "coordinates": [31.61251337535227, -25.2621618855842]}}, {"type": "Feature", "properties": {"norad_id": 44337, "name": "BEIDOU-3 IGSO-2 (C39)", "group": "gnss", "lat": 32.23016442542229, "lon": -45.61598277298667, "alt_km": 35710.746270584634, "timestamp": "2025-12-24T05:51:19.852523+00:00", "meta": {"OBJECT_NAME": "BEIDOU-3 IGSO-2 (C39)", "OBJECT_ID": "2019-035A", "EPOCH": "2025-12-23T20:34:24.431808", "MEAN_MOTION": 1.00267916, "ECCENTRICITY": 0.00378021, "INCLINATION": 55.2291, "RA_OF_ASC_NODE": 160.4037, "ARG_OF_PERICENTER": 202.4581, "MEAN_ANOMALY": 157.7229, "EPHEMERIS_TYPE": 0, "CLASSIFICATION_TYPE": "U", "NORAD_CAT_ID": 44337, "ELEMENT_SET_NO": 999, "REV_AT_EPOCH": 2391, "BSTAR": 0, "MEAN_MOTION_DOT": -7.4e-07, "MEAN_MOTION_DDOT": 0}, "tle": {"line1": "1 44337U 19035A   25357.85722722 -.00000074  00000+0  00000+0 0  9996", "line2": "2 44337  55.2291 160.4037 0037802 202.4581 157.7229  1.00267916 23910"}}, "geometry": {"type": "Point", "coordinates": [-45.61598277298667, 32.23016442542229]}}, {"type": "Feature", "properties": {"norad_id": 44506, "name": "GPS BIII-2  (PRN 18)", "group": "gnss", "lat": 49.32319245355775, "lon": 30.594468156208777, "alt_km": 20277.955026582535, "timestamp": "2025-12-24T05:51:19.852535+00:00", "meta": {"OBJECT_NAME": "GPS BIII-2  (PRN 18)", "OBJECT_ID": "2019-056A", "EPOCH": "2025-12-23T09:23:28.795200", "MEAN_MOTION": 2.0056658, "ECCENTRICITY": 0.00577459, "INCLINATION": 55.7176, "RA_OF_ASC_NODE": 338.1305, "ARG_OF_PERICENTER": 198.6012, "MEAN_ANOMALY": 332.8304, "EPHEMERIS_TYPE": 0, "CLASSIFICATION_TYPE": "U", "NORAD_CAT_ID": 44506, "ELEMENT_SET_NO": 999, "REV_AT_EPOCH": 4654, "BSTAR": 0, "MEAN_MOTION_DOT": -6.4e-07, "MEAN_MOTION_DDOT": 0}, "tle": {"line1": "1 44506U 19056A   25357.39130550 -.00000064  00000+0  00000+0 0  9997", "line2": "2 44506  55.7176 338.1305 0057745 198.6012 332.8304  2.00566580 46544"}}, "geometry": {"type": "Point", "coordinates": [30.594468156208777, 49.32319245355775]}}]}